start=new Date('2022-05-14T00:00:00.000Z').valueOf();
sats=[{"PERIOD":"95.592","GP_ID":"203478596","SITE":"AFETR","MEAN_MOTION_DDOT":"0.0000000000000","COUNTRY_CODE":"US","REV_AT_EPOCH":"5690","OBJECT_TYPE":"PAYLOAD","ELEMENT_SET_NO":"999","DECAY_DATE":null,"CLASSIFICATION_TYPE":"U","RCS_SIZE":"LARGE","INCLINATION":"53.0520","SEMIMAJOR_AXIS":"6925.347","MEAN_ANOMALY":"313.8491","EPOCH":"2022-05-13T17:22:41.547072","BSTAR":"0.00010293000000","ECCENTRICITY":"0.00022490","NORAD_CAT_ID":"48405","PERIAPSIS":"545.654","OBJECT_NAME":"STARLINK-2570","OBJECT_ID":"2021-038BE","MEAN_MOTION":"15.06400577","RA_OF_ASC_NODE":"128.3535","TIME_SYSTEM":"UTC","LAUNCH_DATE":"2021-05-04","REF_FRAME":"TEME","FILE":"3444395","ARG_OF_PERICENTER":"46.2684","TLE_LINE1":"1 48405U 21038BE  22133.72409198  .00001252  00000-0  10293-3 0  9994","EPHEMERIS_TYPE":"0","APOAPSIS":"548.769","CENTER_NAME":"EARTH","MEAN_MOTION_DOT":"0.00001252","TLE_LINE2":"2 48405  53.0520 128.3535 0002249  46.2684 313.8491 15.06400577 56906","MEAN_ELEMENT_THEORY":"SGP4"},{"BSTAR":"0.00012883000000","NORAD_CAT_ID":"48406","ECCENTRICITY":"0.00026110","PERIAPSIS":"545.418","MEAN_MOTION":"15.06395836","OBJECT_ID":"2021-038BF","OBJECT_NAME":"STARLINK-2568","MEAN_MOTION_DDOT":"0.0000000000000","COUNTRY_CODE":"US","PERIOD":"95.592","GP_ID":"203477345","SITE":"AFETR","DECAY_DATE":null,"CLASSIFICATION_TYPE":"U","ELEMENT_SET_NO":"999","OBJECT_TYPE":"PAYLOAD","REV_AT_EPOCH":"5690","RCS_SIZE":"LARGE","MEAN_ANOMALY":"318.5653","EPOCH":"2022-05-13T17:17:23.575200","INCLINATION":"53.0555","SEMIMAJOR_AXIS":"6925.361","MEAN_MOTION_DOT":"0.00001637","CENTER_NAME":"EARTH","TLE_LINE2":"2 48406  53.0555 128.3771 0002611  41.5534 318.5653 15.06395836 56905","MEAN_ELEMENT_THEORY":"SGP4","RA_OF_ASC_NODE":"128.3771","TIME_SYSTEM":"UTC","LAUNCH_DATE":"2021-05-04","REF_FRAME":"TEME","EPHEMERIS_TYPE":"0","TLE_LINE1":"1 48406U 21038BF  22133.72041175  .00001637  00000-0  12883-3 0  9996","ARG_OF_PERICENTER":"41.5534","FILE":"3444395","APOAPSIS":"549.035"},{"RA_OF_ASC_NODE":"128.3717","TIME_SYSTEM":"UTC","LAUNCH_DATE":"2021-05-04","REF_FRAME":"TEME","FILE":"3444395","TLE_LINE1":"1 48407U 21038BG  22133.71671685 -.00000158  00000-0  83168-5 0  9995","EPHEMERIS_TYPE":"0","ARG_OF_PERICENTER":"38.7512","APOAPSIS":"548.725","CENTER_NAME":"EARTH","MEAN_MOTION_DOT":"-0.00000158","TLE_LINE2":"2 48407  53.0543 128.3717 0002167  38.7512 321.3632 15.06396466 56890","MEAN_ELEMENT_THEORY":"SGP4","PERIOD":"95.592","GP_ID":"203477595","SITE":"AFETR","COUNTRY_CODE":"US","MEAN_MOTION_DDOT":"0.0000000000000","REV_AT_EPOCH":"5689","OBJECT_TYPE":"PAYLOAD","ELEMENT_SET_NO":"999","DECAY_DATE":null,"CLASSIFICATION_TYPE":"U","RCS_SIZE":"LARGE","INCLINATION":"53.0543","SEMIMAJOR_AXIS":"6925.359","MEAN_ANOMALY":"321.3632","EPOCH":"2022-05-13T17:12:04.335840","BSTAR":"0.00000831680000","NORAD_CAT_ID":"48407","ECCENTRICITY":"0.00021670","PERIAPSIS":"545.724","OBJECT_ID":"2021-038BG","OBJECT_NAME":"STARLINK-2595","MEAN_MOTION":"15.06396466"},{"SEMIMAJOR_AXIS":"6925.334","INCLINATION":"53.0552","EPOCH":"2022-05-13T17:06:45.885312","MEAN_ANOMALY":"299.4938","RCS_SIZE":"LARGE","ELEMENT_SET_NO":"999","OBJECT_TYPE":"PAYLOAD","REV_AT_EPOCH":"5689","CLASSIFICATION_TYPE":"U","DECAY_DATE":null,"SITE":"AFETR","PERIOD":"95.592","GP_ID":"203477847","COUNTRY_CODE":"US","MEAN_MOTION_DDOT":"0.0000000000000","OBJECT_NAME":"STARLINK-2592","OBJECT_ID":"2021-038BH","MEAN_MOTION":"15.06404614","PERIAPSIS":"546.073","NORAD_CAT_ID":"48408","ECCENTRICITY":"0.00016270","BSTAR":"0.00017156000000","APOAPSIS":"548.326","FILE":"3444395","TLE_LINE1":"1 48408U 21038BH  22133.71303108  .00002275  00000-0  17156-3 0  9991","EPHEMERIS_TYPE":"0","ARG_OF_PERICENTER":"60.6214","REF_FRAME":"TEME","TIME_SYSTEM":"UTC","LAUNCH_DATE":"2021-05-04","RA_OF_ASC_NODE":"128.4007","MEAN_ELEMENT_THEORY":"SGP4","TLE_LINE2":"2 48408  53.0552 128.4007 0001627  60.6214 299.4938 15.06404614 56896","MEAN_MOTION_DOT":"0.00002275","CENTER_NAME":"EARTH"},{"REF_FRAME":"TEME","LAUNCH_DATE":"2021-05-04","TIME_SYSTEM":"UTC","RA_OF_ASC_NODE":"133.3053","APOAPSIS":"549.026","FILE":"3444395","ARG_OF_PERICENTER":"44.3563","TLE_LINE1":"1 48409U 21038BJ  22133.73653015 -.00000118  00000-0  11011-4 0  9999","EPHEMERIS_TYPE":"0","TLE_LINE2":"2 48409  53.0557 133.3053 0002611  44.3563 315.7635 15.06398498 56841","MEAN_MOTION_DOT":"-0.00000118","CENTER_NAME":"EARTH","MEAN_ELEMENT_THEORY":"SGP4","REV_AT_EPOCH":"5684","OBJECT_TYPE":"PAYLOAD","ELEMENT_SET_NO":"999","CLASSIFICATION_TYPE":"U","DECAY_DATE":null,"SITE":"AFETR","GP_ID":"203478097","PERIOD":"95.592","COUNTRY_CODE":"US","MEAN_MOTION_DDOT":"0.0000000000000","SEMIMAJOR_AXIS":"6925.353","INCLINATION":"53.0557","EPOCH":"2022-05-13T17:40:36.204960","MEAN_ANOMALY":"315.7635","RCS_SIZE":"LARGE","NORAD_CAT_ID":"48409","ECCENTRICITY":"0.00026110","BSTAR":"0.00001101100000","OBJECT_NAME":"STARLINK-2596","OBJECT_ID":"2021-038BJ","MEAN_MOTION":"15.06398498","PERIAPSIS":"545.410"},{"ARG_OF_PERICENTER":"52.0544","TLE_LINE1":"1 48410U 21038BK  22133.91667824  .00179718  00000-0  11819-1 0  9999","EPHEMERIS_TYPE":"0","FILE":"3444395","APOAPSIS":"549.119","RA_OF_ASC_NODE":"82.4842","REF_FRAME":"TEME","LAUNCH_DATE":"2021-05-04","TIME_SYSTEM":"UTC","MEAN_ELEMENT_THEORY":"SGP4","CENTER_NAME":"EARTH","MEAN_MOTION_DOT":"0.00179718","TLE_LINE2":"2 48410  53.0543  82.4842 0002213  52.0544 180.5745 15.06278406  1308","RCS_SIZE":"LARGE","EPOCH":"2022-05-13T22:00:00.999936","MEAN_ANOMALY":"180.5745","SEMIMAJOR_AXIS":"6925.721","INCLINATION":"53.0543","MEAN_MOTION_DDOT":"0.0000000000000","COUNTRY_CODE":"US","SITE":"AFETR","GP_ID":"203476846","PERIOD":"95.600","CLASSIFICATION_TYPE":"U","DECAY_DATE":null,"REV_AT_EPOCH":"130","OBJECT_TYPE":"PAYLOAD","ELEMENT_SET_NO":"999","PERIAPSIS":"546.054","MEAN_MOTION":"15.06278406","OBJECT_ID":"2021-038BK","OBJECT_NAME":"STARLINK-2563","BSTAR":"0.01181900000000","ECCENTRICITY":"0.00022130","NORAD_CAT_ID":"48410"},{"MEAN_ELEMENT_THEORY":"SGP4","TLE_LINE2":"2 48411  53.0539  77.4903 0001729  58.5207  81.6204 15.06392507  1304","MEAN_MOTION_DOT":"-0.00001856","CENTER_NAME":"EARTH","APOAPSIS":"548.434","ARG_OF_PERICENTER":"58.5207","TLE_LINE1":"1 48411U 21038BL  22133.91667824 -.00001856  00000-0 -10577-3 0  9991","EPHEMERIS_TYPE":"0","FILE":"3444395","TIME_SYSTEM":"UTC","LAUNCH_DATE":"2021-05-04","REF_FRAME":"TEME","RA_OF_ASC_NODE":"77.4903","MEAN_MOTION":"15.06392507","OBJECT_NAME":"STARLINK-2505","OBJECT_ID":"2021-038BL","PERIAPSIS":"546.039","NORAD_CAT_ID":"48411","ECCENTRICITY":"0.00017290","BSTAR":"-0.00010577000000","MEAN_ANOMALY":"81.6204","EPOCH":"2022-05-13T22:00:00.999936","INCLINATION":"53.0539","SEMIMAJOR_AXIS":"6925.372","RCS_SIZE":"LARGE","DECAY_DATE":null,"CLASSIFICATION_TYPE":"U","ELEMENT_SET_NO":"999","OBJECT_TYPE":"PAYLOAD","REV_AT_EPOCH":"130","COUNTRY_CODE":"US","MEAN_MOTION_DDOT":"0.0000000000000","GP_ID":"203477096","PERIOD":"95.593","SITE":"AFETR"},{"NORAD_CAT_ID":"48412","ECCENTRICITY":"0.00020120","BSTAR":"-0.00215950000000","MEAN_MOTION":"15.06411308","OBJECT_ID":"2021-038BM","OBJECT_NAME":"STARLINK-2581","PERIAPSIS":"545.786","DECAY_DATE":null,"CLASSIFICATION_TYPE":"U","OBJECT_TYPE":"PAYLOAD","REV_AT_EPOCH":"130","ELEMENT_SET_NO":"999","MEAN_MOTION_DDOT":"0.0000000000000","COUNTRY_CODE":"US","GP_ID":"203478346","PERIOD":"95.591","SITE":"AFETR","MEAN_ANOMALY":"218.3288","EPOCH":"2022-05-13T22:00:00.999936","INCLINATION":"53.0545","SEMIMAJOR_AXIS":"6925.314","RCS_SIZE":"LARGE","TLE_LINE2":"2 48412  53.0545  77.4895 0002012  46.9437 218.3288 15.06411308  1306","CENTER_NAME":"EARTH","MEAN_MOTION_DOT":"-0.00032313","MEAN_ELEMENT_THEORY":"SGP4","TIME_SYSTEM":"UTC","LAUNCH_DATE":"2021-05-04","REF_FRAME":"TEME","RA_OF_ASC_NODE":"77.4895","APOAPSIS":"548.572","TLE_LINE1":"1 48412U 21038BM  22133.91667824 -.00032313  00000-0 -21595-2 0  9995","EPHEMERIS_TYPE":"0","ARG_OF_PERICENTER":"46.9437","FILE":"3444395"},{"INCLINATION":"53.0578","SEMIMAJOR_AXIS":"6925.368","MEAN_ANOMALY":"311.2111","EPOCH":"2022-05-13T20:25:08.239584","RCS_SIZE":"LARGE","OBJECT_TYPE":"PAYLOAD","REV_AT_EPOCH":"5745","ELEMENT_SET_NO":"999","DECAY_DATE":null,"CLASSIFICATION_TYPE":"U","GP_ID":"203451725","PERIOD":"95.593","SITE":"AFETR","COUNTRY_CODE":"US","MEAN_MOTION_DDOT":"0.0000000000000","OBJECT_ID":"2021-040A","OBJECT_NAME":"STARLINK-2461","MEAN_MOTION":"15.06393580","PERIAPSIS":"546.251","NORAD_CAT_ID":"48428","ECCENTRICITY":"0.00014180","BSTAR":"0.00002429900000","APOAPSIS":"548.215","FILE":"3444184","EPHEMERIS_TYPE":"0","TLE_LINE1":"1 48428U 21040A   22133.85078981  .00000080  00000-0  24299-4 0  9998","ARG_OF_PERICENTER":"48.9000","LAUNCH_DATE":"2021-05-09","TIME_SYSTEM":"UTC","REF_FRAME":"TEME","RA_OF_ASC_NODE":"332.7886","MEAN_ELEMENT_THEORY":"SGP4","TLE_LINE2":"2 48428  53.0578 332.7886 0001418  48.9000 311.2111 15.06393580 57459","CENTER_NAME":"EARTH","MEAN_MOTION_DOT":"0.00000080"},{"RA_OF_ASC_NODE":"302.5012","TIME_SYSTEM":"UTC","LAUNCH_DATE":"2021-05-09","REF_FRAME":"TEME","ARG_OF_PERICENTER":"87.2149","TLE_LINE1":"1 48429U 21040B   22133.91667824  .00049292  00000-0  33087-2 0  9997","EPHEMERIS_TYPE":"0","FILE":"3444395","APOAPSIS":"548.283","CENTER_NAME":"EARTH","MEAN_MOTION_DOT":"0.00049292","TLE_LINE2":"2 48429  53.0535 302.5012 0001361  87.2149  75.4189 15.06358513  1300","MEAN_ELEMENT_THEORY":"SGP4","MEAN_MOTION_DDOT":"0.0000000000000","COUNTRY_CODE":"US","PERIOD":"95.595","GP_ID":"203478099","SITE":"AFETR","DECAY_DATE":null,"CLASSIFICATION_TYPE":"U","ELEMENT_SET_NO":"999","OBJECT_TYPE":"PAYLOAD","REV_AT_EPOCH":"130","RCS_SIZE":"LARGE","MEAN_ANOMALY":"75.4189","EPOCH":"2022-05-13T22:00:00.999936","INCLINATION":"53.0535","SEMIMAJOR_AXIS":"6925.476","BSTAR":"0.00330870000000","ECCENTRICITY":"0.00013610","NORAD_CAT_ID":"48429","PERIAPSIS":"546.398","MEAN_MOTION":"15.06358513","OBJECT_NAME":"STARLINK-2749","OBJECT_ID":"2021-040B"}];
